start=new Date('2022-05-20T00:00:00.000Z').valueOf();
sats=[{"COUNTRY_CODE":"US","CENTER_NAME":"EARTH","OBJECT_TYPE":"PAYLOAD","EPOCH":"2022-05-19T12:37:45.324192","ARG_OF_PERICENTER":"65.4316","OBJECT_NAME":"STARLINK-2274","BSTAR":"0.00014921000000","TIME_SYSTEM":"UTC","REF_FRAME":"TEME","MEAN_ANOMALY":"294.6828","RA_OF_ASC_NODE":"237.3034","MEAN_MOTION_DDOT":"0.0000000000000","NORAD_CAT_ID":"48599","PERIAPSIS":"546.198","LAUNCH_DATE":"2021-05-15","MEAN_MOTION_DOT":"0.00001941","APOAPSIS":"548.258","DECAY_DATE":null,"FILE":"3453530","RCS_SIZE":"LARGE","MEAN_ELEMENT_THEORY":"SGP4","MEAN_MOTION":"15.06395263","SITE":"AFETR","ELEMENT_SET_NO":"999","REV_AT_EPOCH":"5715","CLASSIFICATION_TYPE":"U","TLE_LINE1":"1 48599U 21041AY  22139.52621903  .00001941  00000-0  14921-3 0  9993","INCLINATION":"53.0555","PERIOD":"95.592","EPHEMERIS_TYPE":"0","GP_ID":"203959493","ECCENTRICITY":"0.00014870","OBJECT_ID":"2021-041AY","SEMIMAJOR_AXIS":"6925.363","TLE_LINE2":"2 48599  53.0555 237.3034 0001487  65.4316 294.6828 15.06395263 57154"},{"TLE_LINE1":"1 48600U 21041AZ  22139.49719799  .00000555  00000-0  56196-4 0  9994","CLASSIFICATION_TYPE":"U","REV_AT_EPOCH":"5693","SITE":"AFETR","ELEMENT_SET_NO":"999","MEAN_MOTION":"15.06388891","MEAN_ELEMENT_THEORY":"SGP4","FILE":"3453530","RCS_SIZE":"LARGE","DECAY_DATE":null,"TLE_LINE2":"2 48600  53.0584 252.4311 0001545  96.7010 263.4155 15.06388891 56939","SEMIMAJOR_AXIS":"6925.383","OBJECT_ID":"2021-041AZ","ECCENTRICITY":"0.00015450","EPHEMERIS_TYPE":"0","GP_ID":"203959500","PERIOD":"95.593","INCLINATION":"53.0584","TIME_SYSTEM":"UTC","ARG_OF_PERICENTER":"96.7010","OBJECT_NAME":"STARLINK-2275","BSTAR":"0.00005619600000","EPOCH":"2022-05-19T11:55:57.906336","CENTER_NAME":"EARTH","OBJECT_TYPE":"PAYLOAD","COUNTRY_CODE":"US","MEAN_MOTION_DOT":"0.00000555","APOAPSIS":"548.318","LAUNCH_DATE":"2021-05-15","PERIAPSIS":"546.178","MEAN_MOTION_DDOT":"0.0000000000000","NORAD_CAT_ID":"48600","REF_FRAME":"TEME","MEAN_ANOMALY":"263.4155","RA_OF_ASC_NODE":"252.4311"},{"PERIOD":"95.592","INCLINATION":"53.0569","GP_ID":"203987669","EPHEMERIS_TYPE":"0","ECCENTRICITY":"0.00016600","SEMIMAJOR_AXIS":"6925.353","OBJECT_ID":"2021-041BB","TLE_LINE2":"2 48602  53.0569 236.2631 0001660  60.4638 299.6516 15.06398424 57173","DECAY_DATE":null,"MEAN_ELEMENT_THEORY":"SGP4","FILE":"3453812","RCS_SIZE":"LARGE","SITE":"AFETR","ELEMENT_SET_NO":"999","MEAN_MOTION":"15.06398424","REV_AT_EPOCH":"5717","CLASSIFICATION_TYPE":"U","TLE_LINE1":"1 48602U 21041BB  22139.75843319  .00001382  00000-0  11167-3 0  9998","MEAN_ANOMALY":"299.6516","RA_OF_ASC_NODE":"236.2631","REF_FRAME":"TEME","MEAN_MOTION_DDOT":"0.0000000000000","NORAD_CAT_ID":"48602","PERIAPSIS":"546.069","LAUNCH_DATE":"2021-05-15","APOAPSIS":"548.368","MEAN_MOTION_DOT":"0.00001382","COUNTRY_CODE":"US","CENTER_NAME":"EARTH","OBJECT_TYPE":"PAYLOAD","EPOCH":"2022-05-19T18:12:08.627616","BSTAR":"0.00011167000000","OBJECT_NAME":"STARLINK-2713","ARG_OF_PERICENTER":"60.4638","TIME_SYSTEM":"UTC"},{"BSTAR":"0.00000271570000","OBJECT_NAME":"STARLINK-2714","ARG_OF_PERICENTER":"57.3843","EPOCH":"2022-05-19T14:31:11.077248","TIME_SYSTEM":"UTC","COUNTRY_CODE":"US","OBJECT_TYPE":"PAYLOAD","CENTER_NAME":"EARTH","LAUNCH_DATE":"2021-05-15","PERIAPSIS":"546.132","NORAD_CAT_ID":"48603","MEAN_MOTION_DDOT":"0.0000000000000","APOAPSIS":"548.353","MEAN_MOTION_DOT":"-0.00000241","RA_OF_ASC_NODE":"231.9442","MEAN_ANOMALY":"302.7301","REF_FRAME":"TEME","TLE_LINE1":"1 48603U 21041BC  22139.60498932 -.00000241  00000-0  27157-5 0  9992","CLASSIFICATION_TYPE":"U","FILE":"3453812","RCS_SIZE":"LARGE","MEAN_ELEMENT_THEORY":"SGP4","DECAY_DATE":null,"REV_AT_EPOCH":"5723","ELEMENT_SET_NO":"999","SITE":"AFETR","MEAN_MOTION":"15.06390529","SEMIMAJOR_AXIS":"6925.378","OBJECT_ID":"2021-041BC","ECCENTRICITY":"0.00016040","TLE_LINE2":"2 48603  53.0534 231.9442 0001604  57.3843 302.7301 15.06390529 57232","INCLINATION":"53.0534","PERIOD":"95.593","GP_ID":"203988419","EPHEMERIS_TYPE":"0"},{"MEAN_MOTION_DDOT":"0.0000000000000","NORAD_CAT_ID":"48604","LAUNCH_DATE":"2021-05-15","PERIAPSIS":"546.057","MEAN_MOTION_DOT":"-0.00000326","APOAPSIS":"548.463","REF_FRAME":"TEME","RA_OF_ASC_NODE":"261.9509","MEAN_ANOMALY":"295.2005","EPOCH":"2022-05-19T14:33:52.277184","ARG_OF_PERICENTER":"64.9164","OBJECT_NAME":"STARLINK-2757","BSTAR":"-0.00000299690000","TIME_SYSTEM":"UTC","COUNTRY_CODE":"US","OBJECT_TYPE":"PAYLOAD","CENTER_NAME":"EARTH","ECCENTRICITY":"0.00017370","SEMIMAJOR_AXIS":"6925.395","OBJECT_ID":"2021-041BD","TLE_LINE2":"2 48604  53.0529 261.9509 0001737  64.9164 295.2005 15.06384810 56817","PERIOD":"95.593","INCLINATION":"53.0529","EPHEMERIS_TYPE":"0","GP_ID":"203959503","CLASSIFICATION_TYPE":"U","TLE_LINE1":"1 48604U 21041BD  22139.60685506 -.00000326  00000-0 -29969-5 0  9996","DECAY_DATE":null,"FILE":"3453530","RCS_SIZE":"LARGE","MEAN_ELEMENT_THEORY":"SGP4","MEAN_MOTION":"15.06384810","SITE":"AFETR","ELEMENT_SET_NO":"999","REV_AT_EPOCH":"5681"},{"SITE":"AFETR","ELEMENT_SET_NO":"999","MEAN_MOTION":"15.06386549","REV_AT_EPOCH":"5426","DECAY_DATE":null,"FILE":"3453812","MEAN_ELEMENT_THEORY":"SGP4","RCS_SIZE":"LARGE","CLASSIFICATION_TYPE":"U","TLE_LINE1":"1 48638U 21044A   22139.62480452 -.00000033  00000-0  16664-4 0  9992","EPHEMERIS_TYPE":"0","GP_ID":"203988173","INCLINATION":"53.0545","PERIOD":"95.593","TLE_LINE2":"2 48638  53.0545 236.8714 0001489  76.7015 283.4140 15.06386549 54268","ECCENTRICITY":"0.00014890","OBJECT_ID":"2021-044A","SEMIMAJOR_AXIS":"6925.390","OBJECT_TYPE":"PAYLOAD","CENTER_NAME":"EARTH","COUNTRY_CODE":"US","TIME_SYSTEM":"UTC","EPOCH":"2022-05-19T14:59:43.110528","OBJECT_NAME":"STARLINK-2758","ARG_OF_PERICENTER":"76.7015","BSTAR":"0.00001666400000","REF_FRAME":"TEME","MEAN_ANOMALY":"283.4140","RA_OF_ASC_NODE":"236.8714","MEAN_MOTION_DOT":"-0.00000033","APOAPSIS":"548.286","MEAN_MOTION_DDOT":"0.0000000000000","NORAD_CAT_ID":"48638","PERIAPSIS":"546.224","LAUNCH_DATE":"2021-05-26"},{"RA_OF_ASC_NODE":"236.3416","MEAN_ANOMALY":"301.8380","REF_FRAME":"TEME","MEAN_MOTION_DDOT":"0.0000000000000","NORAD_CAT_ID":"48639","LAUNCH_DATE":"2021-05-26","PERIAPSIS":"546.170","APOAPSIS":"548.256","MEAN_MOTION_DOT":"0.00001969","COUNTRY_CODE":"US","CENTER_NAME":"EARTH","OBJECT_TYPE":"PAYLOAD","EPOCH":"2022-05-19T17:49:32.977056","BSTAR":"0.00015103000000","ARG_OF_PERICENTER":"58.2756","OBJECT_NAME":"STARLINK-2739","TIME_SYSTEM":"UTC","PERIOD":"95.592","INCLINATION":"53.0541","GP_ID":"203987924","EPHEMERIS_TYPE":"0","ECCENTRICITY":"0.00015060","SEMIMAJOR_AXIS":"6925.348","OBJECT_ID":"2021-044B","TLE_LINE2":"2 48639  53.0541 236.3416 0001506  58.2756 301.8380 15.06400149 54282","DECAY_DATE":null,"FILE":"3453812","MEAN_ELEMENT_THEORY":"SGP4","RCS_SIZE":"LARGE","MEAN_MOTION":"15.06400149","SITE":"AFETR","ELEMENT_SET_NO":"999","REV_AT_EPOCH":"5428","CLASSIFICATION_TYPE":"U","TLE_LINE1":"1 48639U 21044B   22139.74274279  .00001969  00000-0  15103-3 0  9998"},{"CLASSIFICATION_TYPE":"U","TLE_LINE1":"1 48640U 21044C   22139.77591949  .00001459  00000-0  11686-3 0  9995","DECAY_DATE":null,"FILE":"3453812","RCS_SIZE":"LARGE","MEAN_ELEMENT_THEORY":"SGP4","SITE":"AFETR","MEAN_MOTION":"15.06388721","ELEMENT_SET_NO":"999","REV_AT_EPOCH":"5428","ECCENTRICITY":"0.00017350","SEMIMAJOR_AXIS":"6925.383","OBJECT_ID":"2021-044C","TLE_LINE2":"2 48640  53.0543 236.1895 0001735  72.4430 287.6748 15.06388721 54286","PERIOD":"95.593","INCLINATION":"53.0543","GP_ID":"203987173","EPHEMERIS_TYPE":"0","EPOCH":"2022-05-19T18:37:19.443936","BSTAR":"0.00011686000000","OBJECT_NAME":"STARLINK-2736","ARG_OF_PERICENTER":"72.4430","TIME_SYSTEM":"UTC","COUNTRY_CODE":"US","OBJECT_TYPE":"PAYLOAD","CENTER_NAME":"EARTH","MEAN_MOTION_DDOT":"0.0000000000000","NORAD_CAT_ID":"48640","PERIAPSIS":"546.047","LAUNCH_DATE":"2021-05-26","APOAPSIS":"548.450","MEAN_MOTION_DOT":"0.00001459","RA_OF_ASC_NODE":"236.1895","MEAN_ANOMALY":"287.6748","REF_FRAME":"TEME"},{"EPHEMERIS_TYPE":"0","GP_ID":"203987422","INCLINATION":"53.0533","PERIOD":"95.592","TLE_LINE2":"2 48641  53.0533 241.3144 0001910  64.4579 295.6608 15.06397766 54217","ECCENTRICITY":"0.00019100","SEMIMAJOR_AXIS":"6925.355","OBJECT_ID":"2021-044D","MEAN_MOTION":"15.06397766","SITE":"AFETR","ELEMENT_SET_NO":"999","REV_AT_EPOCH":"5421","DECAY_DATE":null,"FILE":"3453812","RCS_SIZE":"LARGE","MEAN_ELEMENT_THEORY":"SGP4","CLASSIFICATION_TYPE":"U","TLE_LINE1":"1 48641U 21044D   22139.74875599 -.00000824  00000-0 -36391-4 0  9997","REF_FRAME":"TEME","RA_OF_ASC_NODE":"241.3144","MEAN_ANOMALY":"295.6608","MEAN_MOTION_DOT":"-0.00000824","APOAPSIS":"548.543","NORAD_CAT_ID":"48641","MEAN_MOTION_DDOT":"0.0000000000000","PERIAPSIS":"545.898","LAUNCH_DATE":"2021-05-26","CENTER_NAME":"EARTH","OBJECT_TYPE":"PAYLOAD","COUNTRY_CODE":"US","TIME_SYSTEM":"UTC","EPOCH":"2022-05-19T17:58:12.517536","OBJECT_NAME":"STARLINK-2754","ARG_OF_PERICENTER":"64.4579","BSTAR":"-0.00003639100000"},{"TLE_LINE1":"1 48642U 21044E   22139.56351540  .00003812  00000-0  27463-3 0  9990","CLASSIFICATION_TYPE":"U","REV_AT_EPOCH":"5418","MEAN_MOTION":"15.06402427","SITE":"AFETR","ELEMENT_SET_NO":"999","MEAN_ELEMENT_THEORY":"SGP4","FILE":"3453038","RCS_SIZE":"LARGE","DECAY_DATE":null,"TLE_LINE2":"2 48642  53.0528 242.1438 0001560  79.9342 280.1823 15.06402427 54182","SEMIMAJOR_AXIS":"6925.341","OBJECT_ID":"2021-044E","ECCENTRICITY":"0.00015600","EPHEMERIS_TYPE":"0","GP_ID":"203943292","INCLINATION":"53.0528","PERIOD":"95.592","TIME_SYSTEM":"UTC","ARG_OF_PERICENTER":"79.9342","OBJECT_NAME":"STARLINK-2646","BSTAR":"0.00027463000000","EPOCH":"2022-05-19T13:31:27.730560","OBJECT_TYPE":"PAYLOAD","CENTER_NAME":"EARTH","COUNTRY_CODE":"US","MEAN_MOTION_DOT":"0.00003812","APOAPSIS":"548.286","LAUNCH_DATE":"2021-05-26","PERIAPSIS":"546.126","NORAD_CAT_ID":"48642","MEAN_MOTION_DDOT":"0.0000000000000","REF_FRAME":"TEME","MEAN_ANOMALY":"280.1823","RA_OF_ASC_NODE":"242.1438"}];
